STARLETTE               
1 07646U 75010A   21053.57897636 -.00000156  00000-0 -87603-5 0  9991
2 07646  49.8234 204.2405 0205793 132.3922 229.4591 13.82308978326103
LAGEOS 1                
1 08820U 76039A   21053.35910543  .00000035  00000-0  00000-0 0  9992
2 08820 109.8200 234.5129 0045007 356.9426 176.2396  6.38664694789502
AJISAI (EGS)            
1 16908U 86061A   21053.60299170 -.00000097  00000-0  24017-5 0  9996
2 16908  50.0120 354.5140 0011289 281.2965 252.5200 12.44493139238841
COSMOS 1989 (ETALON 1)  
1 19751U 89001C   21053.51208091 -.00000009  00000-0  00000-0 0  9998
2 19751  64.2128 138.8851 0023069 211.6416 234.6209  2.13156322250001
COSMOS 2024 (ETALON 2)  
1 20026U 89039C   21053.37433095 -.00000047  00000-0  00000-0 0  9996
2 20026  65.5344  16.6521 0018313 220.3619 309.9917  2.13204332247123
LAGEOS 2                
1 22195U 92070B   21053.23555426 -.00000009  00000-0  00000-0 0  9990
2 22195  52.6664  53.2862 0137438  58.7231  25.0913  6.47293745669882
STELLA                  
1 22824U 93061B   21053.59290194 -.00000047  00000-0 -28676-6 0  9995
2 22824  98.9770  56.8511 0007393 102.2790  12.9358 14.27383327427921
LARES                   
1 38077U 12006A   21053.38149068 -.00000043  00000-0 -26502-4 0  9992
2 38077  69.4968   7.3113 0006341  72.1496 288.0218 12.54930958413673
